{"type": "FeatureCollection", "features": [ {"type": "Feature", "properties": {"norad_id": 32289, "name": "YAOGAN-3", "group": "resource", "lat": 11.85538278545188, "lon": -170.06263918209024, "alt_km": 599.9138645058601, "timestamp": "2025-12-07T14:37:04.865963+00:00", "meta": {"OBJECT_NAME": "YAOGAN-3", "OBJECT_ID": "2007-055A", "EPOCH": "2025-12-06T21:44:51.432576", "MEAN_MOTION": 14.8981713, "ECCENTRICITY": 0.00014948, "INCLINATION": 97.8368, "RA_OF_ASC_NODE": 7.584, "ARG_OF_PERICENTER": 76.9579, "MEAN_ANOMALY": 283.1806, "EPHEMERIS_TYPE": 0, "CLASSIFICATION_TYPE": "U", "NORAD_CAT_ID": 32289, "ELEMENT_SET_NO": 999, "REV_AT_EPOCH": 97722, "BSTAR": 0.00045243479, "MEAN_MOTION_DOT": 4.288e-05, "MEAN_MOTION_DDOT": 0}, "tle": {"line1": "1 32289U 07055A   25340.90615084  .00004288  00000+0  45243-3 0  9990", "line2": "2 32289  97.8368   7.5840 0001494  76.9579 283.1806 14.89817130977229"}}, "geometry": {"type": "Point", "coordinates": [-170.06263918209024, 11.85538278545188]}}, {"type": "Feature", "properties": {"norad_id": 32376, "name": "COSMO-SKYMED 2", "group": "resource", "lat": -48.044629961433145, "lon": -25.853966716708168, "alt_km": 630.2474245935982, "timestamp": "2025-12-07T14:37:04.865974+00:00", "meta": {"OBJECT_NAME": "COSMO-SKYMED 2", "OBJECT_ID": "2007-059A", "EPOCH": "2025-12-06T21:23:14.779392", "MEAN_MOTION": 14.82154723, "ECCENTRICITY": 0.00015276, "INCLINATION": 97.8813, "RA_OF_ASC_NODE": 162.3029, "ARG_OF_PERICENTER": 86.6777, "MEAN_ANOMALY": 273.4611, "EPHEMERIS_TYPE": 0, "CLASSIFICATION_TYPE": "U", "NORAD_CAT_ID": 32376, "ELEMENT_SET_NO": 999, "REV_AT_EPOCH": 97351, "BSTAR": 0.00014144897, "MEAN_MOTION_DOT": 1.074e-05, "MEAN_MOTION_DDOT": 0}, "tle": {"line1": "1 32376U 07059A   25340.89114328  .00001074  00000+0  14145-3 0  9991", "line2": "2 32376  97.8813 162.3029 0001527  86.6777 273.4611 14.82154723973514"}}, "geometry": {"type": "Point", "coordinates": [-25.853966716708168, -48.044629961433145]}}, {"type": "Feature", "properties": {"norad_id": 32382, "name": "RADARSAT-2", "group": "resource", "lat": 58.451178442491866, "lon": -27.960802993371438, "alt_km": 785.4413791550696, "timestamp": "2025-12-07T14:37:04.865985+00:00", "meta": {"OBJECT_NAME": "RADARSAT-2", "OBJECT_ID": "2007-061A", "EPOCH": "2025-12-06T23:13:37.185600", "MEAN_MOTION": 14.29985093, "ECCENTRICITY": 0.00010766, "INCLINATION": 98.5798, "RA_OF_ASC_NODE": 345.6419, "ARG_OF_PERICENTER": 91.4473, "MEAN_ANOMALY": 268.6833, "EPHEMERIS_TYPE": 0, "CLASSIFICATION_TYPE": "U", "NORAD_CAT_ID": 32382, "ELEMENT_SET_NO": 999, "REV_AT_EPOCH": 93848, "BSTAR": 7.6632539e-05, "MEAN_MOTION_DOT": 1.54e-06, "MEAN_MOTION_DDOT": 0}, "tle": {"line1": "1 32382U 07061A   25340.96779150  .00000154  00000+0  76633-4 0  9998", "line2": "2 32382  98.5798 345.6419 0001076  91.4473 268.6833 14.29985093938488"}}, "geometry": {"type": "Point", "coordinates": [-27.960802993371438, 58.451178442491866]}}, {"type": "Feature", "properties": {"norad_id": 32783, "name": "CARTOSAT-2A", "group": "resource", "lat": 66.67034496463265, "lon": 13.076412573995709, "alt_km": 620.4006201431139, "timestamp": "2025-12-07T14:37:04.865995+00:00", "meta": {"OBJECT_NAME": "CARTOSAT-2A", "OBJECT_ID": "2008-021A", "EPOCH": "2025-12-06T22:04:28.854624", "MEAN_MOTION": 14.78920534, "ECCENTRICITY": 0.00122503, "INCLINATION": 97.7938, "RA_OF_ASC_NODE": 30.925, "ARG_OF_PERICENTER": 22.9571, "MEAN_ANOMALY": 337.2185, "EPHEMERIS_TYPE": 0, "CLASSIFICATION_TYPE": "U", "NORAD_CAT_ID": 32783, "ELEMENT_SET_NO": 999, "REV_AT_EPOCH": 95038, "BSTAR": 0.00022814394, "MEAN_MOTION_DOT": 1.634e-05, "MEAN_MOTION_DDOT": 0}, "tle": {"line1": "1 32783U 08021A   25340.91977841  .00001634  00000+0  22814-3 0  9997", "line2": "2 32783  97.7938  30.9250 0012250  22.9571 337.2185 14.78920534950380"}}, "geometry": {"type": "Point", "coordinates": [13.076412573995709, 66.67034496463265]}}, {"type": "Feature", "properties": {"norad_id": 33320, "name": "HUANJING 1A (HJ-1A)", "group": "resource", "lat": -31.087967477105188, "lon": 145.4711928333279, "alt_km": 638.2996762143321, "timestamp": "2025-12-07T14:37:04.866006+00:00", "meta": {"OBJECT_NAME": "HUANJING 1A (HJ-1A)", "OBJECT_ID": "2008-041A", "EPOCH": "2025-12-06T23:05:56.966496", "MEAN_MOTION": 14.83366559, "ECCENTRICITY": 0.00204795, "INCLINATION": 97.6535, "RA_OF_ASC_NODE": 329.5022, "ARG_OF_PERICENTER": 52.5845, "MEAN_ANOMALY": 307.723, "EPHEMERIS_TYPE": 0, "CLASSIFICATION_TYPE": "U", "NORAD_CAT_ID": 33320, "ELEMENT_SET_NO": 999, "REV_AT_EPOCH": 92990, "BSTAR": 0.00033657048, "MEAN_MOTION_DOT": 2.718e-05, "MEAN_MOTION_DDOT": 0}, "tle": {"line1": "1 33320U 08041A   25340.96246489  .00002718  00000+0  33657-3 0  9990", "line2": "2 33320  97.6535 329.5022 0020479  52.5845 307.7230 14.83366559929903"}}, "geometry": {"type": "Point", "coordinates": [145.4711928333279, -31.087967477105188]}}, {"type": "Feature", "properties": {"norad_id": 33321, "name": "HUANJING 1B (HJ-1B)", "group": "resource", "lat": 79.49365920688378, "lon": -72.53154050354425, "alt_km": 586.7052021404224, "timestamp": "2025-12-07T14:37:04.866017+00:00", "meta": {"OBJECT_NAME": "HUANJING 1B (HJ-1B)", "OBJECT_ID": "2008-041B", "EPOCH": "2025-12-06T22:03:08.061984", "MEAN_MOTION": 14.82798426, "ECCENTRICITY": 0.00382436, "INCLINATION": 97.6394, "RA_OF_ASC_NODE": 333.1725, "ARG_OF_PERICENTER": 94.2353, "MEAN_ANOMALY": 266.3233, "EPHEMERIS_TYPE": 0, "CLASSIFICATION_TYPE": "U", "NORAD_CAT_ID": 33321, "ELEMENT_SET_NO": 999, "REV_AT_EPOCH": 92991, "BSTAR": 0.00028678065, "MEAN_MOTION_DOT": 2.297e-05, "MEAN_MOTION_DDOT": 0}, "tle": {"line1": "1 33321U 08041B   25340.91884331  .00002297  00000+0  28678-3 0  9999", "line2": "2 33321  97.6394 333.1725 0038243  94.2353 266.3233 14.82798426929918"}}, "geometry": {"type": "Point", "coordinates": [-72.53154050354425, 79.49365920688378]}}, {"type": "Feature", "properties": {"norad_id": 33331, "name": "GEOEYE 1", "group": "resource", "lat": 40.356705304666015, "lon": 45.980110607250445, "alt_km": 674.9245153752472, "timestamp": "2025-12-07T14:37:04.866027+00:00", "meta": {"OBJECT_NAME": "GEOEYE 1", "OBJECT_ID": "2008-042A", "EPOCH": "2025-12-06T22:02:16.412928", "MEAN_MOTION": 14.64800268, "ECCENTRICITY": 0.00028418, "INCLINATION": 98.1259, "RA_OF_ASC_NODE": 52.2715, "ARG_OF_PERICENTER": 302.4644, "MEAN_ANOMALY": 57.6284, "EPHEMERIS_TYPE": 0, "CLASSIFICATION_TYPE": "U", "NORAD_CAT_ID": 33331, "ELEMENT_SET_NO": 999, "REV_AT_EPOCH": 92200, "BSTAR": 0.00022780145, "MEAN_MOTION_DOT": 1.168e-05, "MEAN_MOTION_DDOT": 0}, "tle": {"line1": "1 33331U 08042A   25340.91824552  .00001168  00000+0  22780-3 0  9994", "line2": "2 33331  98.1259  52.2715 0002841 302.4644  57.6284 14.64800268922003"}}, "geometry": {"type": "Point", "coordinates": [45.980110607250445, 40.356705304666015]}}, {"type": "Feature", "properties": {"norad_id": 33396, "name": "THEOS", "group": "resource", "lat": 2.063936325819089, "lon": 39.53796623172513, "alt_km": 827.7601160399045, "timestamp": "2025-12-07T14:37:04.866038+00:00", "meta": {"OBJECT_NAME": "THEOS", "OBJECT_ID": "2008-049A", "EPOCH": "2025-12-06T21:41:54.138048", "MEAN_MOTION": 14.20094588, "ECCENTRICITY": 0.00011063, "INCLINATION": 98.5877, "RA_OF_ASC_NODE": 39.1658, "ARG_OF_PERICENTER": 100.2374, "MEAN_ANOMALY": 259.8928, "EPHEMERIS_TYPE": 0, "CLASSIFICATION_TYPE": "U", "NORAD_CAT_ID": 33396, "ELEMENT_SET_NO": 999, "REV_AT_EPOCH": 89067, "BSTAR": 0.00010010432, "MEAN_MOTION_DOT": 1.71e-06, "MEAN_MOTION_DDOT": 0}, "tle": {"line1": "1 33396U 08049A   25340.90409882  .00000171  00000+0  10010-3 0  9992", "line2": "2 33396  98.5877  39.1658 0001106 100.2374 259.8928 14.20094588890671"}}, "geometry": {"type": "Point", "coordinates": [39.53796623172513, 2.063936325819089]}}, {"type": "Feature", "properties": {"norad_id": 33412, "name": "COSMO-SKYMED 3", "group": "resource", "lat": -41.4614083150784, "lon": -161.08849386534814, "alt_km": 563.774053014864, "timestamp": "2025-12-07T14:37:04.866048+00:00", "meta": {"OBJECT_NAME": "COSMO-SKYMED 3", "OBJECT_ID": "2008-054A", "EPOCH": "2025-12-06T18:03:51.768000", "MEAN_MOTION": 15.05266571, "ECCENTRICITY": 0.00157103, "INCLINATION": 97.8455, "RA_OF_ASC_NODE": 191.0437, "ARG_OF_PERICENTER": 194.2584, "MEAN_ANOMALY": 165.8201, "EPHEMERIS_TYPE": 0, "CLASSIFICATION_TYPE": "U", "NORAD_CAT_ID": 33412, "ELEMENT_SET_NO": 999, "REV_AT_EPOCH": 92797, "BSTAR": 0.00057274343, "MEAN_MOTION_DOT": 8.147e-05, "MEAN_MOTION_DDOT": 0}, "tle": {"line1": "1 33412U 08054A   25340.75268250  .00008147  00000+0  57274-3 0  9996", "line2": "2 33412  97.8455 191.0437 0015710 194.2584 165.8201 15.05266571927970"}}, "geometry": {"type": "Point", "coordinates": [-161.08849386534814, -41.4614083150784]}}, {"type": "Feature", "properties": {"norad_id": 33446, "name": "YAOGAN-4", "group": "resource", "lat": -3.090315738577056, "lon": -87.81099489182515, "alt_km": 614.8869087554804, "timestamp": "2025-12-07T14:37:04.866059+00:00", "meta": {"OBJECT_NAME": "YAOGAN-4", "OBJECT_ID": "2008-061A", "EPOCH": "2025-12-06T19:11:44.118816", "MEAN_MOTION": 14.82653709, "ECCENTRICITY": 0.00141035, "INCLINATION": 97.9176, "RA_OF_ASC_NODE": 270.9574, "ARG_OF_PERICENTER": 343.3516, "MEAN_ANOMALY": 16.7232, "EPHEMERIS_TYPE": 0, "CLASSIFICATION_TYPE": "U", "NORAD_CAT_ID": 33446, "ELEMENT_SET_NO": 999, "REV_AT_EPOCH": 91715, "BSTAR": 0.00034781722, "MEAN_MOTION_DOT": 2.754e-05, "MEAN_MOTION_DDOT": 0}, "tle": {"line1": "1 33446U 08061A   25340.79981619  .00002754  00000+0  34782-3 0  9993", "line2": "2 33446  97.9176 270.9574 0014103 343.3516  16.7232 14.82653709917158"}}, "geometry": {"type": "Point", "coordinates": [-87.81099489182515, -3.090315738577056]}}]}